UNKNOWN                 
1 81617U 73086    23018.50496386  .00000354  00000+0  23904-2 0  9993
2 81617 101.2896 229.0394 0037986 178.0005 182.1229 12.56406778420024
UNKNOWN                 
1 81624U          23016.83639689  .00006382  00000+0  14756-2 0  9998
2 81624  66.9879 172.5055 0088742  27.1102 333.4603 14.53350172484701
UNKNOWN                 
1 81626U          23011.89724494  .00831021  00000+0  27770-1 0  9995
2 81626  70.9785  80.3573 0028071   2.8877 357.2461 15.27998194472744
UNKNOWN                 
1 81640U          23018.57726027  .00001035  00000+0  10013-2 0  9994
2 81640  65.8258 134.6442 0987107 147.2410 219.3953 12.55693321377017
UNKNOWN                 
1 81652U 76077    23018.52693508  .00000805  00000+0  10113-2 0  9991
2 81652 102.1762  37.7699 0379028 202.3198 313.0362 13.41867221436453
UNKNOWN                 
1 81661U          23017.52233369  .00021221  00000+0  51331-2 0  9990
2 81661  98.4282 300.7224 0060124 203.2298 156.6177 14.51949829380909
UNKNOWN                 
1 81667U          23018.23642160  .00004420  00000+0  14470-2 0  9993
2 81667  74.0435 203.2358 0017697  43.9512 316.3046 14.38656326303812
UNKNOWN                 
1 81674U          23009.17700160  .00001048  00000+0  68646-3 0  9997
2 81674  66.8237 165.4781 0033754 278.3010 257.5522 14.05789064463303
UNKNOWN                 
1 81678U          23017.30376337  .00047218  00000+0  48744-2 0  9995
2 81678  65.8292 336.4238 0047757 252.7337 180.8776 14.89046336490556
UNKNOWN                 
1 81683U          23018.25017478  .00005922  00000+0  16722-2 0  9991
2 81683  81.2238 320.8175 0028464 268.0323  91.7607 14.45372857482220
UNKNOWN                 
1 81693U 73086    23018.44176448  .00000899  00000+0  68007-2 0  9991
2 81693 101.0782 187.6743 0387376 276.5154  79.1950 12.23646829838089
UNKNOWN                 
1 81696U          23017.95781139  .00020722  00000+0  17089-2 0  9995
2 81696  97.4478 283.7655 0188242 184.7684 175.1747 14.86189553355173
UNKNOWN                 
1 81732U          23018.43303404  .00065223  00000+0  60509-2 0  9995
2 81732  65.7315 284.1990 0217259  53.2861 308.7993 14.77838790487185
UNKNOWN                 
1 81745U          23017.67868913  .00004649  00000+0  17669-2 0  9999
2 81745  71.0031 170.0277 0004123  52.7641 320.6617 14.31478170477603
UNKNOWN                 
1 81749U          23012.92863431  .00000470  00000+0  17431-2 0  9991
2 81749  99.6768 181.8589 0368923  18.0701 134.5980 12.77080924426051
UNKNOWN                 
1 81775U          23017.72542037  .00007482  00000+0  33573-2 0  9994
2 81775  82.9282   7.8101 0019712 247.9502 111.9587 14.22229638473721
UNKNOWN                 
1 81779U          23009.26894988 -.00012279  00000+0 -55677+0 0  9991
2 81779  54.2628 343.0387 1715928 213.1775 134.8886  9.25331547381120
UNKNOWN                 
1 81792U          23018.49331044  .00005442  00000+0  20941-2 0  9991
2 81792  65.8280 303.7959 0909165  31.4913 333.7383 13.05099814436615
UNKNOWN                 
1 81794U          23018.56583850  .00063881  00000+0  55726-2 0  9995
2 81794  81.1753 123.1244 0005438 228.3611 131.7142 14.96521774491847
UNKNOWN                 
1 81798U          23018.26334575  .00077523  00000+0  13741-1 0  9992
2 81798  74.0108 319.6589 0038612 286.5031  73.1897 14.66315996432836
UNKNOWN                 
1 81812U          23018.67834191  .00003759  00000+0  25444-1 0  9996
2 81812 103.5590 168.7202 0381535 230.9764 125.6740 12.30089768409975
UNKNOWN                 
1 81813U          23009.88709212  .00004432  00000+0  12530-2 0  9997
2 81813  99.0598 237.4450 0018641  61.6411 298.6656 14.46072136480768
UNKNOWN                 
1 81816U 77121    23018.07050114  .00002053  00000+0  16717-2 0  9997
2 81816  66.2402  47.1423 0178796 145.3960 215.8902 13.84710800462385
UNKNOWN                 
1 81817U          23017.04926949  .00027497  00000+0  24991-2 0  9996
2 81817  65.7222 253.7911 0277605 202.2008 156.6895 14.70146917489382
UNKNOWN                 
1 81818U          23016.99823972  .00010076  00000+0  22164-2 0  9997
2 81818  65.7521 244.1480 0655678  41.7929 323.1330 13.72946955501828
UNKNOWN                 
1 81819U          23016.73722911  .00001488  00000+0  10641-1 0  9994
2 81819 102.2064  89.2478 0034524 290.7296  69.0071 12.45749653415790
UNKNOWN                 
1 81824U          23018.20969944  .00006066  00000+0  28648-2 0  9997
2 81824  65.8510 310.2290 0049107 204.0192 155.8604 14.19778060473417
UNKNOWN                 
1 81833U          23017.62186434  .00000249  00000+0  88493-3 0  9999
2 81833  90.2606 339.0942 0025670 280.2567  79.5657 12.93138480315476
UNKNOWN                 
1 81838U          23018.25170473  .00007537  00000+0  24160-2 0  9997
2 81838  67.7685 112.9064 0042672 306.1204  83.9027 14.39385510480021
UNKNOWN                 
1 81844U          23017.54404992  .00005367  00000+0  25810-2 0  9993
2 81844  82.9233  58.2766 0081960 122.1059 238.8110 14.16912423471976
UNKNOWN                 
1 81845U          23016.88220975  .00004300  00000+0  57534-3 0  9992
2 81845  97.7536 234.7552 0102863 166.6919 204.8842 14.76314205492579
UNKNOWN                 
1 81864U          23017.28622191  .00001070  00000+0  47171-3 0  9991
2 81864  65.6765  13.4713 0779667 110.8419 257.7860 13.26677210409866
UNKNOWN                 
1 81865U 87062    23018.25909769  .00002854  00000+0  25354-2 0  9991
2 81865  82.8075 123.1268 0070838 125.7131 264.5534 13.83320782461837
UNKNOWN                 
1 81872U          23018.10807597  .00297276  00000+0  13512-1 0  9992
2 81872  61.9764 244.6713 1487422  19.2933 345.8690 12.44344055221588
UNKNOWN                 
1 81873U          23011.84730493  .00005090  00000+0  27830-2 0  9997
2 81873  99.0866  62.5411 0073368 214.7172 144.9198 14.11048009418699
UNKNOWN                 
1 81877U          23016.79246692  .00001375  00000+0  18864-2 0  9992
2 81877  65.9378  36.9776 0074130 242.4394 116.9118 13.60749513983581
UNKNOWN                 
1 81893U 70025    23018.58987376  .00001577  00000+0  17572-2 0  9993
2 81893  99.9606 302.0562 0015938 107.2946 252.9945 13.73055875458549
UNKNOWN                 
1 81899U          23017.46888185  .00000651  00000+0  16985-2 0  9998
2 81899 102.4332 280.0885 0185398 287.5933  70.4999 13.16700509439257
UNKNOWN                 
1 81902U          23017.88231764  .00027192  00000+0  32181-2 0  9999
2 81902  81.6232 222.3644 0247709 286.7958  70.6204 14.64906167483391
UNKNOWN                 
1 81905U          23018.04880467  .00396421  00000+0  84332-2 0  9990
2 81905  61.6557 246.1089 0675168 232.2274 121.5780 14.31839339544359
UNKNOWN                 
1 81921U          23016.13910258  .00003251  00000+0  13108-2 0  9997
2 81921  65.7098 289.9825 0885863 205.6959 149.7426 13.08211133889310
UNKNOWN                 
1 81946U 87079    23017.53428569  .00000193  00000+0  81672-3 0  9993
2 81946  66.4227  30.5786 0668528 144.2495 303.2833 12.42034883416187
UNKNOWN                 
1 81947U          23017.77155939  .00006022  00000+0  70658-3 0  9996
2 81947  66.0807 202.1841 0442986  64.2485 300.3634 14.34281314478063
UNKNOWN                 
1 81964U          23018.27251686  .00000510  00000+0  43821-3 0  9995
2 81964  66.5861   7.3965 0030306  60.2320 300.1768 13.94656482466242
UNKNOWN                 
1 81969U          23018.07654002  .00005182  00000+0  56328-3 0  9993
2 81969  86.6669 246.3060 0011438  30.0488 330.1392 14.87856384281575
UNKNOWN                 
1 81995U          23015.16826692  .00004308  00000+0  10412-2 0  9997
2 81995  65.7565 339.2181 0576961 102.6306 263.9881 13.84612093456130
UNKNOWN                 
1 82039U          23018.11072139  .00020823  00000+0  41545-2 0  9995
2 82039  99.0683  78.5115 0037392  53.3661 307.0966 14.61526070402575
UNKNOWN                 
1 82043U          23018.61530669  .00004612  00000+0  14459-2 0  9994
2 82043  97.9473 254.7245 0258572   6.5113 353.9322 14.23591881422728
UNKNOWN                 
1 82044U          23009.43035585  .00001384  00000+0  14787-2 0  9999
2 82044  99.9195  89.4990 0066981 155.7352 204.6974 13.74882817414986
UNKNOWN                 
1 82051U          23017.43886161  .00005684  00000+0  25097-2 0  9993
2 82051  98.8095  88.1597 0116030 106.8474 254.5466 14.20109621421168
UNKNOWN                 
1 82073U          23017.26667982  .00005200  00000+0  15687-2 0  9994
2 82073  97.6863 193.6257 0238345 256.5029 100.9498 14.27712398423226
UNKNOWN                 
1 82139U          23017.34027403  .00003517  00000+0  20327-2 0  9990
2 82139  99.1043  64.2256 0093903 143.1310 217.6363 14.07419036330552
UNKNOWN                 
1 82162U          23018.34816268  .00004164  00000+0  71875-2 0  9995
2 82162 100.3814 244.0616 0059039 267.9172  91.5195 13.44071859361520
UNKNOWN                 
1 82168U          23012.91130121  .00076050  00000+0  67165-2 0  9995
2 82168  74.0004  79.4703 0016253 354.5584   5.5421 14.95851314332278
UNKNOWN                 
1 82180U          23017.23828390  .00025836  00000+0  54019-2 0  9991
2 82180  65.6612 304.7597 0455114  27.7415 334.7155 14.10658071450198
UNKNOWN                 
1 82187U          23016.27698538  .00114738  00000+0  14798-1 0  9999
2 82187  70.9381  21.3841 0058330 322.5912  37.1189 14.79131041487401
UNKNOWN                 
1 82189U          23018.19318065  .00000676  00000+0  25166-3 0  9996
2 82189  74.0338 188.8654 0017676 277.2062  82.7080 14.33862233480482
UNKNOWN                 
1 82199U          23018.27097757  .00000854  00000+0  75221-3 0  9993
2 82199  82.9687 309.1343 0036775 160.7139 352.6403 13.83922878463051
UNKNOWN                 
1 82205U          23018.32040344  .00003622  00000+0  89268-3 0  9999
2 82205  63.0065 349.7390 0586390 187.1469 172.0939 13.82617433460921
UNKNOWN                 
1 82223U          23018.50451642  .00003055  00000+0  19015-2 0  9998
2 82223  99.3935 214.9050 0074760  38.3814 322.2638 14.04342990299731
